[{"OBJECT_NAME":"ONEWEB-0136","OBJECT_ID":"2020-100AA","EPOCH":"2025-12-21T00:36:25.939872","MEAN_MOTION":13.12440334,"ECCENTRICITY":0.0001598,"INCLINATION":87.8933,"RA_OF_ASC_NODE":26.0343,"ARG_OF_PERICENTER":84.3788,"MEAN_ANOMALY":275.7523,"EPHEMERIS_TYPE":0,"CLASSIFICATION_TYPE":"U","NORAD_CAT_ID":47282,"ELEMENT_SET_NO":999,"REV_AT_EPOCH":24129,"BSTAR":-4.0723e-6,"MEAN_MOTION_DOT":1.1e-7,"MEAN_MOTION_DDOT":0},{"OBJECT_NAME":"ONEWEB-0137","OBJECT_ID":"2020-100AB","EPOCH":"2025-12-21T01:25:15.938400","MEAN_MOTION":13.12467476,"ECCENTRICITY":0.0001789,"INCLINATION":87.8936,"RA_OF_ASC_NODE":26.0335,"ARG_OF_PERICENTER":99.7287,"MEAN_ANOMALY":260.4044,"EPHEMERIS_TYPE":0,"CLASSIFICATION_TYPE":"U","NORAD_CAT_ID":47283,"ELEMENT_SET_NO":999,"REV_AT_EPOCH":24120,"BSTAR":-4.5249e-5,"MEAN_MOTION_DOT":-4.0e-8,"MEAN_MOTION_DDOT":0},{"OBJECT_NAME":"ONEWEB-0138","OBJECT_ID":"2020-100AC","EPOCH":"2025-12-21T02:43:21.770688","MEAN_MOTION":13.1258929,"ECCENTRICITY":0.0001642,"INCLINATION":87.8932,"RA_OF_ASC_NODE":26.031,"ARG_OF_PERICENTER":90.4441,"MEAN_ANOMALY":269.6876,"EPHEMERIS_TYPE":0,"CLASSIFICATION_TYPE":"U","NORAD_CAT_ID":47284,"ELEMENT_SET_NO":999,"REV_AT_EPOCH":24129,"BSTAR":-0.00086502,"MEAN_MOTION_DOT":-2.99e-6,"MEAN_MOTION_DDOT":0},{"OBJECT_NAME":"ONEWEB-0139","OBJECT_ID":"2020-100AD","EPOCH":"2025-12-21T03:42:00.567072","MEAN_MOTION":13.12374437,"ECCENTRICITY":0.0001533,"INCLINATION":87.8936,"RA_OF_ASC_NODE":26.0129,"ARG_OF_PERICENTER":96.5465,"MEAN_ANOMALY":263.5838,"EPHEMERIS_TYPE":0,"CLASSIFICATION_TYPE":"U","NORAD_CAT_ID":47285,"ELEMENT_SET_NO":999,"REV_AT_EPOCH":24137,"BSTAR":0.0044359,"MEAN_MOTION_DOT":1.607e-5,"MEAN_MOTION_DDOT":0},{"OBJECT_NAME":"ONEWEB-0140","OBJECT_ID":"2020-100AE","EPOCH":"2025-12-21T02:35:56.808960","MEAN_MOTION":13.12401851,"ECCENTRICITY":0.0001698,"INCLINATION":87.8934,"RA_OF_ASC_NODE":26.0088,"ARG_OF_PERICENTER":91.8285,"MEAN_ANOMALY":268.3038,"EPHEMERIS_TYPE":0,"CLASSIFICATION_TYPE":"U","NORAD_CAT_ID":47286,"ELEMENT_SET_NO":999,"REV_AT_EPOCH":24133,"BSTAR":-0.00063589,"MEAN_MOTION_DOT":-2.16e-6,"MEAN_MOTION_DDOT":0},{"OBJECT_NAME":"ONEWEB-0141","OBJECT_ID":"2020-100AF","EPOCH":"2025-12-21T03:41:36.974688","MEAN_MOTION":13.12364927,"ECCENTRICITY":0.000148,"INCLINATION":87.894,"RA_OF_ASC_NODE":26.0095,"ARG_OF_PERICENTER":102.3373,"MEAN_ANOMALY":257.7921,"EPHEMERIS_TYPE":0,"CLASSIFICATION_TYPE":"U","NORAD_CAT_ID":47287,"ELEMENT_SET_NO":999,"REV_AT_EPOCH":24132,"BSTAR":0.0025285,"MEAN_MOTION_DOT":9.21e-6,"MEAN_MOTION_DDOT":0},{"OBJECT_NAME":"ONEWEB-0142","OBJECT_ID":"2020-100AG","EPOCH":"2025-12-21T03:24:59.183424","MEAN_MOTION":13.12434181,"ECCENTRICITY":0.0001336,"INCLINATION":87.8939,"RA_OF_ASC_NODE":26.0344,"ARG_OF_PERICENTER":103.677,"MEAN_ANOMALY":256.4508,"EPHEMERIS_TYPE":0,"CLASSIFICATION_TYPE":"U","NORAD_CAT_ID":47288,"ELEMENT_SET_NO":999,"REV_AT_EPOCH":24131,"BSTAR":0.0013265,"MEAN_MOTION_DOT":4.9e-6,"MEAN_MOTION_DDOT":0},{"OBJECT_NAME":"ONEWEB-0143","OBJECT_ID":"2020-100AH","EPOCH":"2025-12-21T03:39:22.239072","MEAN_MOTION":13.1237256,"ECCENTRICITY":0.0001784,"INCLINATION":87.8932,"RA_OF_ASC_NODE":26.028,"ARG_OF_PERICENTER":96.5756,"MEAN_ANOMALY":263.5575,"EPHEMERIS_TYPE":0,"CLASSIFICATION_TYPE":"U","NORAD_CAT_ID":47289,"ELEMENT_SET_NO":999,"REV_AT_EPOCH":24129,"BSTAR":0.0010552,"MEAN_MOTION_DOT":3.92e-6,"MEAN_MOTION_DDOT":0},{"OBJECT_NAME":"ONEWEB-0144","OBJECT_ID":"2020-100AJ","EPOCH":"2025-12-21T01:08:13.032384","MEAN_MOTION":13.12533793,"ECCENTRICITY":0.0001399,"INCLINATION":87.894,"RA_OF_ASC_NODE":26.017,"ARG_OF_PERICENTER":90.5251,"MEAN_ANOMALY":269.6038,"EPHEMERIS_TYPE":0,"CLASSIFICATION_TYPE":"U","NORAD_CAT_ID":47290,"ELEMENT_SET_NO":999,"REV_AT_EPOCH":24120,"BSTAR":-0.0008104,"MEAN_MOTION_DOT":-2.79e-6,"MEAN_MOTION_DDOT":0},{"OBJECT_NAME":"ONEWEB-0145","OBJECT_ID":"2020-100AK","EPOCH":"2025-12-21T00:26:41.436960","MEAN_MOTION":13.12481146,"ECCENTRICITY":0.0001744,"INCLINATION":87.894,"RA_OF_ASC_NODE":26.0621,"ARG_OF_PERICENTER":96.6767,"MEAN_ANOMALY":263.456,"EPHEMERIS_TYPE":0,"CLASSIFICATION_TYPE":"U","NORAD_CAT_ID":47291,"ELEMENT_SET_NO":999,"REV_AT_EPOCH":24139,"BSTAR":0.0006373,"MEAN_MOTION_DOT":2.42e-6,"MEAN_MOTION_DDOT":0},{"OBJECT_NAME":"ONEWEB-0146","OBJECT_ID":"2020-100AL","EPOCH":"2025-12-21T00:21:51.746400","MEAN_MOTION":13.12500133,"ECCENTRICITY":0.0002153,"INCLINATION":87.8931,"RA_OF_ASC_NODE":26.0486,"ARG_OF_PERICENTER":94.427,"MEAN_ANOMALY":265.7105,"EPHEMERIS_TYPE":0,"CLASSIFICATION_TYPE":"U","NORAD_CAT_ID":47292,"ELEMENT_SET_NO":999,"REV_AT_EPOCH":24130,"BSTAR":0.00084415,"MEAN_MOTION_DOT":3.17e-6,"MEAN_MOTION_DDOT":0},{"OBJECT_NAME":"ONEWEB-0147","OBJECT_ID":"2020-100AM","EPOCH":"2025-12-21T01:22:49.258848","MEAN_MOTION":13.12474663,"ECCENTRICITY":0.0001796,"INCLINATION":87.8924,"RA_OF_ASC_NODE":26.0184,"ARG_OF_PERICENTER":86.5272,"MEAN_ANOMALY":273.6062,"EPHEMERIS_TYPE":0,"CLASSIFICATION_TYPE":"U","NORAD_CAT_ID":47293,"ELEMENT_SET_NO":999,"REV_AT_EPOCH":24120,"BSTAR":1.3888e-5,"MEAN_MOTION_DOT":1.8e-7,"MEAN_MOTION_DDOT":0},{"OBJECT_NAME":"ONEWEB-0115","OBJECT_ID":"2021-025A","EPOCH":"2025-12-20T22:04:59.644992","MEAN_MOTION":13.13471452,"ECCENTRICITY":0.0001794,"INCLINATION":87.8983,"RA_OF_ASC_NODE":355.6456,"ARG_OF_PERICENTER":89.5069,"MEAN_ANOMALY":270.6266,"EPHEMERIS_TYPE":0,"CLASSIFICATION_TYPE":"U","NORAD_CAT_ID":48042,"ELEMENT_SET_NO":999,"REV_AT_EPOCH":23019,"BSTAR":0.00083415,"MEAN_MOTION_DOT":3.17e-6,"MEAN_MOTION_DDOT":0},{"OBJECT_NAME":"ONEWEB-0152","OBJECT_ID":"2021-025B","EPOCH":"2025-12-20T22:24:30.348576","MEAN_MOTION":13.13470564,"ECCENTRICITY":0.0001909,"INCLINATION":87.8976,"RA_OF_ASC_NODE":355.6491,"ARG_OF_PERICENTER":89.0684,"MEAN_ANOMALY":271.0664,"EPHEMERIS_TYPE":0,"CLASSIFICATION_TYPE":"U","NORAD_CAT_ID":48043,"ELEMENT_SET_NO":999,"REV_AT_EPOCH":23015,"BSTAR":0.0004308,"MEAN_MOTION_DOT":1.7e-6,"MEAN_MOTION_DDOT":0},{"OBJECT_NAME":"ONEWEB-0153","OBJECT_ID":"2021-025C","EPOCH":"2025-12-20T12:44:20.256000","MEAN_MOTION":13.13471898,"ECCENTRICITY":0.0001712,"INCLINATION":87.8979,"RA_OF_ASC_NODE":355.735,"ARG_OF_PERICENTER":91.0426,"MEAN_ANOMALY":269.0899,"EPHEMERIS_TYPE":0,"CLASSIFICATION_TYPE":"U","NORAD_CAT_ID":48044,"ELEMENT_SET_NO":999,"REV_AT_EPOCH":23009,"BSTAR":0.00066521,"MEAN_MOTION_DOT":2.56e-6,"MEAN_MOTION_DDOT":0},{"OBJECT_NAME":"ONEWEB-0154","OBJECT_ID":"2021-025D","EPOCH":"2025-12-20T10:49:45.416640","MEAN_MOTION":13.13472069,"ECCENTRICITY":0.00017795,"INCLINATION":87.898,"RA_OF_ASC_NODE":355.7473,"ARG_OF_PERICENTER":87.4402,"MEAN_ANOMALY":272.6931,"EPHEMERIS_TYPE":0,"CLASSIFICATION_TYPE":"U","NORAD_CAT_ID":48045,"ELEMENT_SET_NO":999,"REV_AT_EPOCH":23004,"BSTAR":0.00070757107,"MEAN_MOTION_DOT":2.71e-6,"MEAN_MOTION_DDOT":0},{"OBJECT_NAME":"ONEWEB-0116","OBJECT_ID":"2021-025E","EPOCH":"2025-12-21T00:33:41.600160","MEAN_MOTION":13.13467862,"ECCENTRICITY":0.0001927,"INCLINATION":87.8982,"RA_OF_ASC_NODE":355.6182,"ARG_OF_PERICENTER":88.8208,"MEAN_ANOMALY":271.3141,"EPHEMERIS_TYPE":0,"CLASSIFICATION_TYPE":"U","NORAD_CAT_ID":48046,"ELEMENT_SET_NO":999,"REV_AT_EPOCH":23026,"BSTAR":-0.00043825,"MEAN_MOTION_DOT":-1.47e-6,"MEAN_MOTION_DDOT":0},{"OBJECT_NAME":"ONEWEB-0150","OBJECT_ID":"2021-025F","EPOCH":"2025-12-20T09:22:00.772608","MEAN_MOTION":13.13467948,"ECCENTRICITY":0.00017366,"INCLINATION":87.8984,"RA_OF_ASC_NODE":355.74,"ARG_OF_PERICENTER":95.9263,"MEAN_ANOMALY":264.2065,"EPHEMERIS_TYPE":0,"CLASSIFICATION_TYPE":"U","NORAD_CAT_ID":48047,"ELEMENT_SET_NO":999,"REV_AT_EPOCH":23007,"BSTAR":0.00077063116,"MEAN_MOTION_DOT":2.94e-6,"MEAN_MOTION_DDOT":0},{"OBJECT_NAME":"ONEWEB-0107","OBJECT_ID":"2021-025G","EPOCH":"2025-12-21T01:51:42.344352","MEAN_MOTION":13.13471526,"ECCENTRICITY":0.000148,"INCLINATION":87.8982,"RA_OF_ASC_NODE":355.5999,"ARG_OF_PERICENTER":89.8397,"MEAN_ANOMALY":270.2902,"EPHEMERIS_TYPE":0,"CLASSIFICATION_TYPE":"U","NORAD_CAT_ID":48048,"ELEMENT_SET_NO":999,"REV_AT_EPOCH":23014,"BSTAR":0.0006864,"MEAN_MOTION_DOT":2.63e-6,"MEAN_MOTION_DDOT":0},{"OBJECT_NAME":"ONEWEB-0101","OBJECT_ID":"2021-025H","EPOCH":"2025-12-20T12:10:11.210016","MEAN_MOTION":13.13469453,"ECCENTRICITY":0.0001689,"INCLINATION":87.8975,"RA_OF_ASC_NODE":355.7456,"ARG_OF_PERICENTER":85.2418,"MEAN_ANOMALY":274.8904,"EPHEMERIS_TYPE":0,"CLASSIFICATION_TYPE":"U","NORAD_CAT_ID":48049,"ELEMENT_SET_NO":999,"REV_AT_EPOCH":23004,"BSTAR":-0.0011263,"MEAN_MOTION_DOT":-3.99e-6,"MEAN_MOTION_DDOT":0},{"OBJECT_NAME":"ONEWEB-0113","OBJECT_ID":"2021-025J","EPOCH":"2025-12-21T01:16:52.851936","MEAN_MOTION":13.13985276,"ECCENTRICITY":0.0001963,"INCLINATION":87.8986,"RA_OF_ASC_NODE":355.5649,"ARG_OF_PERICENTER":93.166,"MEAN_ANOMALY":266.9694,"EPHEMERIS_TYPE":0,"CLASSIFICATION_TYPE":"U","NORAD_CAT_ID":48050,"ELEMENT_SET_NO":999,"REV_AT_EPOCH":23021,"BSTAR":-8.3322e-5,"MEAN_MOTION_DOT":-1.8e-7,"MEAN_MOTION_DDOT":0},{"OBJECT_NAME":"ONEWEB-0112","OBJECT_ID":"2021-025K","EPOCH":"2025-12-21T01:59:00.278304","MEAN_MOTION":13.13471564,"ECCENTRICITY":0.0001748,"INCLINATION":87.8987,"RA_OF_ASC_NODE":355.5962,"ARG_OF_PERICENTER":92.418,"MEAN_ANOMALY":267.7149,"EPHEMERIS_TYPE":0,"CLASSIFICATION_TYPE":"U","NORAD_CAT_ID":48051,"ELEMENT_SET_NO":999,"REV_AT_EPOCH":23021,"BSTAR":0.00066048,"MEAN_MOTION_DOT":2.54e-6,"MEAN_MOTION_DDOT":0},{"OBJECT_NAME":"ONEWEB-0156","OBJECT_ID":"2021-025L","EPOCH":"2025-12-21T00:21:30.672576","MEAN_MOTION":13.13467737,"ECCENTRICITY":0.0001648,"INCLINATION":87.8984,"RA_OF_ASC_NODE":355.621,"ARG_OF_PERICENTER":92.044,"MEAN_ANOMALY":268.0878,"EPHEMERIS_TYPE":0,"CLASSIFICATION_TYPE":"U","NORAD_CAT_ID":48052,"ELEMENT_SET_NO":999,"REV_AT_EPOCH":23018,"BSTAR":5.3643e-5,"MEAN_MOTION_DOT":3.2e-7,"MEAN_MOTION_DDOT":0},{"OBJECT_NAME":"ONEWEB-0161","OBJECT_ID":"2021-025M","EPOCH":"2025-12-21T01:34:38.695296","MEAN_MOTION":13.13470976,"ECCENTRICITY":0.0001597,"INCLINATION":87.8978,"RA_OF_ASC_NODE":355.6256,"ARG_OF_PERICENTER":90.8054,"MEAN_ANOMALY":269.3259,"EPHEMERIS_TYPE":0,"CLASSIFICATION_TYPE":"U","NORAD_CAT_ID":48053,"ELEMENT_SET_NO":999,"REV_AT_EPOCH":23012,"BSTAR":0.00062055,"MEAN_MOTION_DOT":2.39e-6,"MEAN_MOTION_DDOT":0}]
